ONEWEB-0415             
1 51624U 22012C   24295.55636423 -.00000218  00000+0 -66073-3 0  9998
2 51624  87.8927 156.4495 0001663  67.3443 292.7860 13.10370270130235
ONEWEB-0416             
1 51625U 22012D   24296.17883646 -.00000581  00000+0 -17002-2 0  9999
2 51625  87.8935 156.3286 0001520  79.4095 280.7204 13.10371388131647
ONEWEB-0422             
1 51626U 22012E   24295.53487324  .00000056  00000+0  11098-3 0  9997
2 51626  87.9080 126.1029 0002420  90.0236 270.1173 13.17649427134310
ONEWEB-0423             
1 51627U 22012F   24295.52810422  .00000040  00000+0  69930-4 0  9998
2 51627  87.9081 126.1073 0001611  89.2896 270.8420 13.17650995134206
ONEWEB-0425             
1 51628U 22012G   24295.57792944 -.00000520  00000+0 -15266-2 0  9998
2 51628  87.8936 156.4267 0001297  90.9810 269.1466 13.10373107130275
ONEWEB-0428             
1 51629U 22012H   24296.16889494 -.00000112  00000+0 -35716-3 0  9992
2 51629  87.8930 156.3271 0001789  78.7251 281.4078 13.10369868131594
ONEWEB-0431             
1 51630U 22012J   24296.13888175  .00000512  00000+0  14297-2 0  9998
2 51630  87.8929 156.3216 0002123  64.9422 295.1926 13.10376442131650
ONEWEB-0434             
1 51631U 22012K   24296.11577676 -.00008447  00000+0 -24245-1 0  9998
2 51631  87.8939 156.3499 0001346  79.2459 280.8820 13.10407762131632
